STARLINK-34242          
1 64727C 25144D   26101.56784722  .00007120  00000+0  23997-3 0  1010
2 64727  53.1608  28.5860 0001282  86.4113 213.8896 15.30187727    15
STARLINK-34239          
1 64728C 25144E   26101.51090278 -.00002894  00000+0 -97601-4 0  1011
2 64728  53.1595  28.4628 0001226  93.1173  91.0567 15.30171887    12
STARLINK-34588          
1 64729C 25144F   26101.52270833  .00006663  00000+0  22488-3 0  1016
2 64729  53.1593  28.6487 0001032  87.6979  39.5091 15.30145052    17
STARLINK-34606          
1 64730C 25144G   26101.53729167 -.00004995  00000+0 -16834-3 0  1014
2 64730  53.1591  28.3528 0001182  96.2036 227.6399 15.30194834    19
STARLINK-34552          
1 64731C 25144H   26101.51923611 -.00008028  00000+0 -27054-3 0  1010
2 64731  53.1603  28.3415 0001273  93.0544 177.7817 15.30197299    17
STARLINK-34596          
1 64732C 25144J   26101.49145833 -.00029278  00000+0 -98677-3 0  1019
2 64732  53.1582  28.7353 0001181  85.9727 257.9805 15.30207069    15
STARLINK-34556          
1 64733C 25144K   26101.58104167  .00047457  00000+0  16009-2 0  1010
2 64733  53.1606  25.8036 0001269 105.7872 206.8278 15.30137967    14
STARLINK-34591          
1 64734C 25144L   26101.49006944 -.00024248  00000+0 -81728-3 0  1011
2 64734  53.1599  28.5264 0001288  87.4983 359.3172 15.30201800    14
STARLINK-34587          
1 64735C 25144M   26101.52131944  .00008919  00000+0  30079-3 0  1013
2 64735  53.1595  28.7032 0001361  93.5945   2.5835 15.30165397    17
STARLINK-34130          
1 64736C 25144N   26101.52409722 -.00018485  00000+0 -62299-3 0  1016
2 64736  53.1586  28.5014 0001155  87.2188 117.3528 15.30201320    17
STARLINK-34619          
1 64737C 25144P   26101.54423611  .00008880  00000+0  29927-3 0  1019
2 64737  53.1611  28.7374 0001253  92.9382  53.9507 15.30187961    12
STARLINK-34597          
1 64738C 25144Q   26101.53520833 -.00010569  00000+0 -35623-3 0  1012
2 64738  53.1609  28.1753 0001291  87.3755 318.0331 15.30196725    17
STARLINK-34471          
1 64739C 25144R   26101.53729167  .00014445  00000+0  48703-3 0  1012
2 64739  53.1594  28.5872 0001301 109.7274  91.9646 15.30171612    18
STARLINK-34208          
1 64740C 25144S   26101.52965278 -.00001247  00000+0 -42024-4 0  1017
2 64740  53.1609  26.0182 0001297  89.4016 311.5679 15.30190025    12
STARLINK-34205          
1 64741C 25144T   26101.57687500  .00006320  00000+0  21326-3 0  1018
2 64741  53.1583  28.3014 0001200  93.0803  19.2627 15.30148528    18
STARLINK-34607          
1 64742C 25144U   26101.48868056 -.00022898  00000+0 -77176-3 0  1010
2 64742  53.1598  28.8819 0001301  85.2697 173.5784 15.30201849    13
STARLINK-34236          
1 64743C 25144V   26101.52340278 -.00026922  00000+0 -90739-3 0  1019
2 64743  53.1584  28.5371 0000654  87.8303  95.4639 15.30205349    11
STARLINK-34185          
1 64744C 25144W   26101.52548611 -.00003848  00000+0 -12969-3 0  1012
2 64744  53.1605  28.2742 0001345  93.2003 229.5373 15.30195338    12
STARLINK-34581          
1 64745C 25144X   26101.56715278  .00006641  00000+0  22383-3 0  1015
2 64745  53.1609  28.6066 0001251  95.2696 189.5641 15.30189743    12
STARLINK-34592          
1 64746C 25144Y   26101.56993056  .00023432  00000+0  78979-3 0  1017
2 64746  53.1591  15.7561 0001090  88.7759 243.5208 15.30178756    10
STARLINK-34589          
1 64747C 25144Z   26101.52201389  .00028278  00000+0  95333-3 0  1011
2 64747  53.1588  15.9931 0001260  92.4899 294.9804 15.30169003    13
STARLINK-34536          
1 64748C 25144AA  26101.49493056 -.00029643  00000+0 -99907-3 0  1012
2 64748  53.1589  28.7346 0001296  84.9500 266.5149 15.30206766    16
STARLINK-34595          
1 64749C 25144AB  26101.54145833 -.00016961  00000+0 -57163-3 0  1013
2 64749  53.1591  28.5285 0001163  87.9104 154.1913 15.30201219    15
STARLINK-34531          
1 64750C 25144AC  26101.56576389  .00033878  00000+0  11410-2 0  1019
2 64750  53.1593  28.2405 0001270 107.6780   1.3382 15.30197654    19
STARLINK-33965          
1 64755C 25147A   26101.54076389 -.00016885  00000+0 -56900-3 0  1015
2 64755  53.1597  90.1318 0001329  80.6644 215.1364 15.30204193    15
STARLINK-34371          
1 64756C 25147B   26101.54840278 -.00012172  00000+0 -41025-3 0  1019
2 64756  53.1583  90.3349 0001353  86.2939 129.4746 15.30196435    13
STARLINK-34401          
1 64757C 25147C   26101.53937500 -.00007859  00000+0 -26483-3 0  1011
2 64757  53.1572  90.4928 0001239  79.5722  28.2685 15.30201417    19
STARLINK-34593          
1 64758C 25147D   26101.57201389 -.00029180  00000+0 -98326-3 0  1011
2 64758  53.1596  89.9700 0001355  82.3195  31.5412 15.30212840    19
STARLINK-34598          
1 64759C 25147E   26101.51784722 -.00001127  00000+0 -37985-4 0  1019
2 64759  53.1577  90.0837 0000642  91.3612 153.7892 15.30181759    18
STARLINK-34235          
1 64760C 25147F   26101.54354167 -.00017751  00000+0 -59819-3 0  1019
2 64760  53.1599  90.1515 0001390  83.6824 209.9797 15.30204401    16
STARLINK-34635          
1 64761C 25147G   26101.49840278  .00018121  00000+0  61063-3 0  1011
2 64761  53.1579  90.1891 0001471  83.4025  48.7186 15.30188432    19
STARLINK-34638          
1 64762C 25147H   26101.52062500  .00006441  00000+0  21705-3 0  1011
2 64762  53.1597  90.3135 0001371  80.8572  57.4130 15.30195046    15
STARLINK-34534          
1 64763C 25147J   26101.57895833 -.00028545  00000+0 -96195-3 0  1016
2 64763  53.1590  90.1214 0001302  82.6761 336.3981 15.30210332    18
STARLINK-34261          
1 64764C 25147K   26101.52965278 -.00004505  00000+0 -15180-3 0  1018
2 64764  53.1598  90.2351 0001374  81.8474 123.6335 15.30198513    17
STARLINK-34566          
1 64765C 25147L   26101.53520833 -.00015304  00000+0 -51570-3 0  1016
2 64765  53.1588  90.0708 0001336  79.3508 226.5509 15.30206030    19
STARLINK-34645          
1 64766C 25147M   26101.55465278 -.00013059  00000+0 -44022-3 0  1019
2 64766  53.1572  90.4424 0001333  84.0291  96.3464 15.30192715    18
STARLINK-34639          
1 64767C 25147N   26101.56437500 -.00027667  00000+0 -93237-3 0  1010
2 64767  53.1585  89.9226 0001341  83.3669  29.1147 15.30208855    11
STARLINK-34609          
1 64768C 25147P   26101.57409722 -.00028056  00000+0 -94567-3 0  1017
2 64768  53.1577  80.0485 0001315  82.8485  30.3758 15.30202703    11
STARLINK-34246          
1 64769C 25147Q   26101.52826389 -.00009791  00000+0 -32991-3 0  1013
2 64769  53.1590  90.1175 0001330  78.9475 182.8557 15.30203594    16
STARLINK-34618          
1 64770C 25147R   26101.52826389 -.00007939  00000+0 -26752-3 0  1015
2 64770  53.1595  90.1514 0001396  83.0935 161.2606 15.30200635    19
STARLINK-34541          
1 64771C 25147S   26101.51784722 -.00001238  00000+0 -41720-4 0  1018
2 64771  53.1568  89.9811 0001228  80.0376 217.4247 15.30197029    13
STARLINK-34652          
1 64772C 25147T   26101.56645833 -.00033873  00000+0 -11415-2 0  1019
2 64772  53.1570  89.7430 0001284  85.5089 125.7010 15.30211476    17
STARLINK-34612          
1 64773C 25147U   26101.53173611 -.00012054  00000+0 -40623-3 0  1019
2 64773  53.1568  89.9615 0001286  79.3769 271.3718 15.30200903    16
STARLINK-34621          
1 64774C 25147V   26101.57548611 -.00028056  00000+0 -94612-3 0  1016
2 64774  53.1577  90.2744 0001157  89.1620 241.0604 15.30187320    12
STARLINK-34657          
1 64775C 25147W   26101.51506944  .00010888  00000+0  36693-3 0  1011
2 64775  53.1586  90.4510 0001201  82.0549 327.4370 15.30189444    16
STARLINK-34637          
1 64776C 25147X   26101.54770833 -.00016685  00000+0 -56227-3 0  1013
2 64776  53.1593  90.2290 0001329  80.0172 184.2692 15.30203800    18
STARLINK-34547          
1 64777C 25147Y   26101.53520833 -.00012024  00000+0 -40519-3 0  1016
2 64777  53.1598  90.1718 0001351  81.9292 171.6228 15.30203203    18
STARLINK-34537          
1 64778C 25147Z   26101.53451389 -.00024466  00000+0 -82532-3 0  1010
2 64778  53.1592  67.3087 0001399  87.8411  77.5633 15.30174618    19
STARLINK-34585          
1 64779C 25147AA  26101.56923611 -.00032461  00000+0 -10939-2 0  1011
2 64779  53.1582  89.8753 0001498  87.8392  63.0670 15.30212872    12
STARLINK-34491          
1 64780C 25147AB  26101.58243056 -.00043186  00000+0 -14554-2 0  1016
2 64780  53.1571  89.7441 0001410  87.0479 171.4825 15.30216246    12
STARLINK-34582          
1 64781C 25147AC  26101.54284722 -.00013929  00000+0 -46941-3 0  1016
2 64781  53.1573  89.9392 0001266  84.5710 309.9732 15.30202540    18
STARLINK-34482          
1 64782C 25147AD  26101.55395833 -.00013898  00000+0 -46849-3 0  1016
2 64782  53.1584  89.9567 0001363  86.7842 334.1016 15.30194479    19
STARLINK-34629          
1 64790C 25150A   26101.56020833 -.00029311  00000+0 -24570-2 0  1018
2 64790  70.0019  51.4722 0002783 271.4775  77.1119 14.98335852    14
STARLINK-34697          
1 64791C 25150B   26101.53034722 -.00044289  00000+0 -37124-2 0  1018
2 64791  70.0017  51.5651 0003164 270.9328 255.0111 14.98344656    18
STARLINK-34632          
1 64792C 25150C   26101.52479167 -.00046009  00000+0 -38564-2 0  1015
2 64792  70.0016  51.6125 0003123 271.1226  88.9494 14.98346506    13
STARLINK-34693          
1 64793C 25150D   26101.56020833 -.00030632  00000+0 -25681-2 0  1013
2 64793  70.0019  51.7626 0003069 272.9051 165.5980 14.98331394    19
STARLINK-34666          
1 64794C 25150E   26101.57131944 -.00022635  00000+0 -18974-2 0  1012
2 64794  70.0019  51.7399 0002677 269.4268 229.8667 14.98332551    14
STARLINK-34567          
1 64795C 25150F   26101.53520833 -.00041083  00000+0 -34438-2 0  1019
2 64795  70.0019  51.4783 0003034 272.5529 347.1453 14.98341636    13
STARLINK-34646          
1 64796C 25150G   26101.52895833  .00099597  00000+0  83572-2 0  1018
2 64796  70.0018  51.7405 0002882 266.1194  93.8523 14.98232293    15
